43072,IRIDIUM 116,2017,100.4,860.0,+,86.4,Active,1,LEO,USA,USA,Commercial/Government,Communications,Falcon,1 43072U 17083C   24265.43775996  .00000505  00000+0  17310-3 0  9998,2 43072  86.3969 226.8171 0002319  89.1087 271.0375 14.34214895353337,14.34214895,0.0002319,LEO
43073,IRIDIUM 130,2017,100.4,860.0,+,86.4,Active,1,LEO,USA,USA,Commercial/Government,Communications,Falcon,1 43073U 17083D   24265.40604478  .00000169  00000+0  53135-4 0  9994,2 43073  86.3979 227.0430 0002215  93.1441 267.0008 14.34216751353278,14.34216751,0.0002215,LEO
43074,IRIDIUM 151,2017,100.4,860.0,+,86.4,Active,1,LEO,USA,USA,Commercial/Government,Communications,Falcon,1 43074U 17083E   24265.65975013  .00000498  00000+0  17060-3 0  9999,2 43074  86.3974 226.7674 0002428  82.0426 278.1046 14.34215241353331,14.34215241,0.0002428,LEO
43075,IRIDIUM 134,2017,100.4,860.0,+,86.4,Active,1,LEO,USA,USA,Commercial/Government,Communications,Falcon,1 43075U 17083F   24265.90711639  .00000034  00000+0  52199-5 0  9990,2 43075  86.3976 226.6636 0002245  91.0063 269.1390 14.34213994353330,14.34213994,0.0002245,LEO
43076,IRIDIUM 137,2017,100.4,860.0,+,86.4,Active,1,LEO,USA,USA,Commercial/Government,Communications,Falcon,1 43076U 17083G   24265.43141861  .00000699  00000+0  24256-3 0  9991,2 43076  86.3974 226.9424 0002961  84.9140 275.2394 14.34212614353339,14.34212614,0.0002961,LEO
43077,IRIDIUM 141,2017,100.4,860.0,+,86.4,Active,1,LEO,USA,USA,Commercial/Government,Communications,Falcon,1 43077U 17083H   24265.84369880  .00000725  00000+0  25165-3 0  9990,2 43077  86.3972 226.6366 0002235  84.1106 276.0344 14.34214237353391,14.34214237,0.0002235,LEO
43078,IRIDIUM 153,2017,100.4,860.0,+,86.4,Active,1,LEO,USA,USA,Commercial/Government,Communications,Falcon,1 43078U 17083J   24265.51679586  .00000772  00000+0  26867-3 0  9994,2 43078  86.4037 195.2868 0001991  68.4821 291.6587 14.34221027354455,14.34221027,0.0001991,LEO
43079,IRIDIUM 131,2017,100.4,860.0,+,86.4,Active,1,LEO,USA,USA,Commercial/Government,Communications,Falcon,1 43079U 17083K   24265.41238898  .00000777  00000+0  27027-3 0  9995,2 43079  86.3978 226.9602 0002396  86.0270 274.1200 14.34215069353266,14.34215069,0.0002396,LEO
